{
  "links" : {
    "next" : "https://api.nasa.gov/neo/rest/v1/feed?start_date=2013-08-09&end_date=2013-08-09&detailed=true&api_key=t0TVs3DtDT2H8Oy2Zy8m2eVrNsAVKAexjcZXUckd",
    "prev" : "https://api.nasa.gov/neo/rest/v1/feed?start_date=2013-08-07&end_date=2013-08-07&detailed=true&api_key=t0TVs3DtDT2H8Oy2Zy8m2eVrNsAVKAexjcZXUckd",
    "self" : "https://api.nasa.gov/neo/rest/v1/feed?start_date=2013-08-08&end_date=2013-08-08&detailed=true&api_key=t0TVs3DtDT2H8Oy2Zy8m2eVrNsAVKAexjcZXUckd"
  },
  "element_count" : 10,
  "near_earth_objects" : {
    "2013-08-08" : [ {
      "links" : {
        "self" : "https://api.nasa.gov/neo/rest/v1/neo/2247517?api_key=t0TVs3DtDT2H8Oy2Zy8m2eVrNsAVKAexjcZXUckd"
      },
      "neo_reference_id" : "2247517",
      "name" : "247517 (2002 QY6)",
      "nasa_jpl_url" : "http://ssd.jpl.nasa.gov/sbdb.cgi?sstr=2247517",
      "absolute_magnitude_h" : 19.7,
      "estimated_diameter" : {
        "kilometers" : {
          "estimated_diameter_min" : 0.3051792326,
          "estimated_diameter_max" : 0.6824015094
        },
        "meters" : {
          "estimated_diameter_min" : 305.1792325939,
          "estimated_diameter_max" : 682.4015094011
        },
        "miles" : {
          "estimated_diameter_min" : 0.1896295249,
          "estimated_diameter_max" : 0.4240245083
        },
        "feet" : {
          "estimated_diameter_min" : 1001.2442334633,
          "estimated_diameter_max" : 2238.8501681036
        }
      },
      "is_potentially_hazardous_asteroid" : false,
      "close_approach_data" : [ {
        "close_approach_date" : "2013-08-08",
        "epoch_date_close_approach" : 1375945200000,
        "relative_velocity" : {
          "kilometers_per_second" : "16.1241367323",
          "kilometers_per_hour" : "58046.8922363164",
          "miles_per_hour" : "36068.0814565045"
        },
        "miss_distance" : {
          "astronomical" : "0.2775805921",
          "lunar" : "107.9788513184",
          "kilometers" : "41525464",
          "miles" : "25802728"
        },
        "orbiting_body" : "Earth"
      } ],
      "orbital_data" : {
        "orbit_id" : "69",
        "orbit_determination_date" : "2017-04-06 09:24:55",
        "orbit_uncertainty" : "0",
        "minimum_orbit_intersection" : ".105725",
        "jupiter_tisserand_invariant" : "6.922",
        "epoch_osculation" : "2458000.5",
        "eccentricity" : ".6990970655073265",
        "semi_major_axis" : ".8169829220410113",
        "inclination" : "12.75302787454951",
        "ascending_node_longitude" : "164.2337362883902",
        "orbital_period" : "269.7229458389839",
        "perihelion_distance" : ".2458325586725394",
        "perihelion_argument" : "355.3574236008058",
        "aphelion_distance" : "1.388133285409483",
        "perihelion_time" : "2458047.243558408981",
        "mean_anomaly" : "297.6112366899678",
        "mean_motion" : "1.334702907385969",
        "equinox" : "J2000"
      }
    }, {
      "links" : {
        "self" : "https://api.nasa.gov/neo/rest/v1/neo/2375657?api_key=t0TVs3DtDT2H8Oy2Zy8m2eVrNsAVKAexjcZXUckd"
      },
      "neo_reference_id" : "2375657",
      "name" : "375657 (2009 CP5)",
      "nasa_jpl_url" : "http://ssd.jpl.nasa.gov/sbdb.cgi?sstr=2375657",
      "absolute_magnitude_h" : 21.5,
      "estimated_diameter" : {
        "kilometers" : {
          "estimated_diameter_min" : 0.1332155667,
          "estimated_diameter_max" : 0.2978790628
        },
        "meters" : {
          "estimated_diameter_min" : 133.2155666981,
          "estimated_diameter_max" : 297.8790627982
        },
        "miles" : {
          "estimated_diameter_min" : 0.0827762899,
          "estimated_diameter_max" : 0.1850934111
        },
        "feet" : {
          "estimated_diameter_min" : 437.0589598459,
          "estimated_diameter_max" : 977.2935443908
        }
      },
      "is_potentially_hazardous_asteroid" : false,
      "close_approach_data" : [ {
        "close_approach_date" : "2013-08-08",
        "epoch_date_close_approach" : 1375945200000,
        "relative_velocity" : {
          "kilometers_per_second" : "9.7464792029",
          "kilometers_per_hour" : "35087.3251305346",
          "miles_per_hour" : "21801.8993290258"
        },
        "miss_distance" : {
          "astronomical" : "0.0882803788",
          "lunar" : "34.3410682678",
          "kilometers" : "13206557",
          "miles" : "8206174"
        },
        "orbiting_body" : "Earth"
      } ],
      "orbital_data" : {
        "orbit_id" : "37",
        "orbit_determination_date" : "2017-04-06 09:22:25",
        "orbit_uncertainty" : "0",
        "minimum_orbit_intersection" : ".0579542",
        "jupiter_tisserand_invariant" : "5.144",
        "epoch_osculation" : "2458000.5",
        "eccentricity" : ".3143171827130026",
        "semi_major_axis" : "1.22540427149313",
        "inclination" : "13.11651934579848",
        "ascending_node_longitude" : "330.2732653909138",
        "orbital_period" : "495.4701687843979",
        "perihelion_distance" : ".8402386531929297",
        "perihelion_argument" : "268.3879780421133",
        "aphelion_distance" : "1.61056988979333",
        "perihelion_time" : "2457934.542051198270",
        "mean_anomaly" : "47.92389747071801",
        "mean_motion" : ".7265825930211608",
        "equinox" : "J2000"
      }
    }, {
      "links" : {
        "self" : "https://api.nasa.gov/neo/rest/v1/neo/2433303?api_key=t0TVs3DtDT2H8Oy2Zy8m2eVrNsAVKAexjcZXUckd"
      },
      "neo_reference_id" : "2433303",
      "name" : "433303 (2013 NX)",
      "nasa_jpl_url" : "http://ssd.jpl.nasa.gov/sbdb.cgi?sstr=2433303",
      "absolute_magnitude_h" : 22.1,
      "estimated_diameter" : {
        "kilometers" : {
          "estimated_diameter_min" : 0.1010543415,
          "estimated_diameter_max" : 0.2259643771
        },
        "meters" : {
          "estimated_diameter_min" : 101.054341542,
          "estimated_diameter_max" : 225.9643771094
        },
        "miles" : {
          "estimated_diameter_min" : 0.0627922373,
          "estimated_diameter_max" : 0.140407711
        },
        "feet" : {
          "estimated_diameter_min" : 331.5431259047,
          "estimated_diameter_max" : 741.3529669956
        }
      },
      "is_potentially_hazardous_asteroid" : false,
      "close_approach_data" : [ {
        "close_approach_date" : "2013-08-08",
        "epoch_date_close_approach" : 1375945200000,
        "relative_velocity" : {
          "kilometers_per_second" : "4.5430358194",
          "kilometers_per_hour" : "16354.9289497365",
          "miles_per_hour" : "10162.3168243515"
        },
        "miss_distance" : {
          "astronomical" : "0.0817632534",
          "lunar" : "31.8059043884",
          "kilometers" : "12231609",
          "miles" : "7600369"
        },
        "orbiting_body" : "Earth"
      } ],
      "orbital_data" : {
        "orbit_id" : "52",
        "orbit_determination_date" : "2017-04-06 09:20:52",
        "orbit_uncertainty" : "2",
        "minimum_orbit_intersection" : ".0547005",
        "jupiter_tisserand_invariant" : "5.912",
        "epoch_osculation" : "2458000.5",
        "eccentricity" : ".1697769644189622",
        "semi_major_axis" : "1.032464212881926",
        "inclination" : "6.321061994452356",
        "ascending_node_longitude" : "112.6341654488095",
        "orbital_period" : "383.1871506962772",
        "perihelion_distance" : ".8571755729476193",
        "perihelion_argument" : "312.6341562057653",
        "aphelion_distance" : "1.207752852816232",
        "perihelion_time" : "2458144.244011171713",
        "mean_anomaly" : "224.9541250853867",
        "mean_motion" : ".9394887050514492",
        "equinox" : "J2000"
      }
    } ]
  }
}